NORAD_CAT_ID,OBJECT_NAME,OBJECT_TYPE,EPOCH,MEAN_MOTION,ECCENTRICITY,INCLINATION,RA_OF_ASC_NODE,ARG_OF_PERICENTER,MEAN_ANOMALY,BSTAR,MEAN_MOTION_DOT,MEAN_MOTION_DDOT,TLE_LINE0,TLE_LINE1,TLE_LINE2,SEMIMAJOR_AXIS,PERIOD,APOGEE,PERIGEE,DECAYED
51874.0,STARLINK-3574,PAYLOAD,2022-08-18 14:00:01,15.08838966,0.000193,53.2167,81.0269,73.9125,322.4656,0.0013712,0.00021602,0.0,0 STARLINK-3574,1 51874U 22022Y   22230.58334491  .00021602  00000-0  13712-2 0  9996,2 51874  53.2167  81.0269 0001930  73.9125 322.4656 15.08838966  1303,6917.884,95.438,541.0840000000002,538.413,0.0
51874.0,STARLINK-3574,PAYLOAD,2022-08-18 22:00:00,15.08866487,0.0002016,53.2167,79.5323,66.792,341.2148,-0.0020323,-0.00032511,0.0,0 STARLINK-3574,1 51874U 22022Y   22230.91667824 -.00032511  00000-0 -20323-2 0  9991,2 51874  53.2167  79.5323 0002016  66.7920 341.2148 15.08866487  1309,6917.799,95.436,541.059,538.27,0.0
51874.0,STARLINK-3574,PAYLOAD,2022-08-19 14:00:01,15.0881827,0.0001788,53.217,76.5377,71.1534,0.057,0.0014808,0.00023344,0.0,0 STARLINK-3574,1 51874U 22022Y   22231.58334491  .00023344  00000-0  14808-2 0  9999,2 51874  53.2170  76.5377 0001788  71.1534   0.0570 15.08818270  1301,6917.946999999999,95.439,541.049,538.575,0.0
51874.0,STARLINK-3574,PAYLOAD,2022-08-19 22:00:00,15.08814453,0.0001918,53.2172,75.0432,64.613,18.1718,0.00094616,0.00014792,0.0,0 STARLINK-3574,1 51874U 22022Y   22231.91667824  .00014792  00000-0  94616-3 0  9998,2 51874  53.2172  75.0432 0001918  64.6130  18.1718 15.08814453  1306,6917.958000000001,95.439,541.15,538.497,0.0
51874.0,STARLINK-3574,PAYLOAD,2022-08-20 14:00:01,15.08825402,0.0001757,53.2177,72.0489,70.3357,35.6084,-0.00052411,-8.616e-05,0.0,0 STARLINK-3574,1 51874U 22022Y   22232.58334491 -.00008616  00000-0 -52411-3 0  9990,2 51874  53.2177  72.0489 0001757  70.3357  35.6084 15.08825402  1302,6917.925,95.438,541.005,538.575,0.0
51874.0,STARLINK-3574,PAYLOAD,2022-08-20 22:00:00,15.088031900000002,0.0001839,53.2178,70.5544,62.8207,54.6999,0.0014853,0.00023406,0.0,0 STARLINK-3574,1 51874U 22022Y   22232.91667824  .00023406  00000-0  14853-2 0  9995,2 51874  53.2178  70.5544 0001839  62.8207  54.6999 15.08803190  1305,6917.993,95.44,541.13,538.586,0.0
51874.0,STARLINK-3574,PAYLOAD,2022-08-21 14:00:01,15.08830526,0.0001756,53.2182,67.5601,70.7232,69.9254,0.00030059,4.498e-05,0.0,0 STARLINK-3574,1 51874U 22022Y   22233.58334491  .00004498  00000-0  30059-3 0  9997,2 51874  53.2182  67.5601 0001756  70.7232  69.9254 15.08830526  1300,6917.909000000002,95.438,540.989,538.56,0.0
51874.0,STARLINK-3574,PAYLOAD,2022-08-21 22:00:00,15.08813975,0.0001843,53.2181,66.0656,63.2588,88.9786,0.0018076,0.00028577,0.0,0 STARLINK-3574,1 51874U 22022Y   22233.91667824  .00028577  00000-0  18076-2 0  9991,2 51874  53.2181  66.0656 0001843  63.2588  88.9786 15.08813975 27488,6917.96,95.439,541.1,538.55,0.0
51874.0,STARLINK-3574,PAYLOAD,2022-08-22 12:00:00,15.08827247,0.0001726,53.2181,63.4451,72.4192,10.0895,0.0018942,0.00029976,0.0,0 STARLINK-3574,1 51874U 22022Y   22234.50001157  .00029976  00000-0  18942-2 0  9994,2 51874  53.2181  63.4451 0001726  72.4192  10.0895 15.08827247  1302,6917.919,95.438,540.9780000000002,538.59,0.0
51874.0,STARLINK-3574,PAYLOAD,2022-08-22 22:00:00,15.08824701,0.0001819,53.2181,61.5767,64.2029,122.8054,0.0021765,0.00034507,0.0,0 STARLINK-3574,1 51874U 22022Y   22234.91667824  .00034507  00000-0  21765-2 0  9991,2 51874  53.2181  61.5767 0001819  64.2029 122.8054 15.08824701  1303,6917.927,95.439,541.0509999999998,538.534,0.0
51874.0,STARLINK-3574,PAYLOAD,2022-08-23 14:00:01,15.0885888,0.0001712,53.218,58.5826,73.9717,136.2235,-0.00072727,-0.0001185,0.0,0 STARLINK-3574,1 51874U 22022Y   22235.58334491 -.00011850  00000-0 -72727-3 0  9999,2 51874  53.2180  58.5826 0001712  73.9717 136.2235 15.08858880 27737,6917.823,95.436,540.872,538.503,0.0
51874.0,STARLINK-3574,PAYLOAD,2022-08-23 22:00:01,15.08830762,0.0001794,53.2177,57.0876,65.967,155.9108,0.002428,0.00038556,0.0,0 STARLINK-3574,1 51874U 22022Y   22235.91668981  .00038556  00000-0  24280-2 0  9990,2 51874  53.2177  57.0876 0001794  65.9670 155.9108 15.08830762  1302,6917.909000000002,95.438,541.015,538.533,0.0
51874.0,STARLINK-3574,PAYLOAD,2022-08-24 14:00:01,15.08879401,0.0001665,53.2174,54.0935,75.5674,169.4504,-0.0034031,-0.000541,0.0,0 STARLINK-3574,1 51874U 22022Y   22236.58334491 -.00054100  00000-0 -34031-2 0  9990,2 51874  53.2174  54.0935 0001665  75.5674 169.4504 15.08879401  1303,6917.76,95.435,540.7769999999998,538.4730000000002,0.0
51874.0,STARLINK-3574,PAYLOAD,2022-08-24 16:00:00,15.088815900000002,0.0001658,53.2173,53.7198,72.1587,265.7655,-0.0047677,-0.00075458,0.0,0 STARLINK-3574,1 51874U 22022Y   22236.66667824 -.00075458  00000-0 -47677-2 0  9997,2 51874  53.2173  53.7198 0001658  72.1587 265.7655 15.08881590 27898,6917.753000000002,95.435,540.765,538.471,0.0
51874.0,STARLINK-3574,PAYLOAD,2022-08-24 22:00:00,15.08808859,0.0001668,53.2171,52.5985,66.0475,190.6005,0.002619,0.00041604,0.0,0 STARLINK-3574,1 51874U 22022Y   22236.91667824  .00041604  00000-0  26190-2 0  9996,2 51874  53.2171  52.5985 0001668  66.0475 190.6005 15.08808859  1306,6917.976,95.44,540.994,538.687,0.0
51874.0,STARLINK-3574,PAYLOAD,2022-08-25 06:00:02,15.08826656,0.0001561,53.217,51.1003,72.3035,195.9849,0.00015539,2.185e-05,0.0,0 STARLINK-3574,1 51874U 22022Y   22237.25002315  .00002185  00000-0  15539-3 0  9999,2 51874  53.2170  51.1003 0001561  72.3035 195.9849 15.08826656 27986,6917.920999999999,95.438,540.866,538.706,0.0
51874.0,STARLINK-3574,PAYLOAD,2022-08-25 14:00:01,15.08849012,0.0001612,53.2171,49.6041,75.0416,204.7608,-0.0012329,-0.00019861,0.0,0 STARLINK-3574,1 51874U 22022Y   22237.58334491 -.00019861  00000-0 -12329-2 0  9992,2 51874  53.2171  49.6041 0001612  75.0416 204.7608 15.08849012  1302,6917.853,95.437,540.8330000000002,538.6030000000002,0.0
51874.0,STARLINK-3574,PAYLOAD,2022-08-25 22:00:00,15.0881517,0.0001678,53.2168,48.1092,66.3673,225.0369,0.0027978,0.0004448999999999,0.0,0 STARLINK-3574,1 51874U 22022Y   22237.91667824  .00044490  00000-0  27978-2 0  9998,2 51874  53.2168  48.1092 0001678  66.3673 225.0369 15.08815170  1306,6917.956,95.439,540.982,538.66,0.0
51874.0,STARLINK-3574,PAYLOAD,2022-08-26 14:00:01,15.08858507,0.0001645,53.217,45.1148,73.8099,240.8318,-0.0014317,-0.00023013,0.0,0 STARLINK-3574,1 51874U 22022Y   22238.58335648 -.00023013  00000-0 -14317-2 0  9991,2 51874  53.2170  45.1148 0001645  73.8099 240.8318 15.08858507  1307,6917.824000000001,95.436,540.827,538.5509999999998,0.0
51874.0,STARLINK-3574,PAYLOAD,2022-08-26 22:00:00,15.08826021,0.0001699,53.217,43.6197,65.7474,260.4439,0.0028114999999999,0.00044724,0.0,0 STARLINK-3574,1 51874U 22022Y   22238.91667824  .00044724  00000-0  28115-2 0  9993,2 51874  53.2170  43.6197 0001699  65.7474 260.4439 15.08826021  1308,6917.9230000000025,95.438,540.9630000000002,538.613,0.0
51874.0,STARLINK-3574,PAYLOAD,2022-08-27 14:00:01,15.08853149,0.0001585999999999,53.2175,40.6255,71.2152,278.1808,-0.0023239999999999,-0.00037098,0.0,0 STARLINK-3574,1 51874U 22022Y   22239.58334491 -.00037098  00000-0 -23240-2 0  9990,2 51874  53.2175  40.6255 0001586  71.2152 278.1808 15.08853149  1302,6917.84,95.437,540.802,538.6080000000002,0.0
51874.0,STARLINK-3574,PAYLOAD,2022-08-27 22:00:00,15.08816959,0.0001614,53.2175,39.1303,62.8402,298.1561,0.0028293,0.00045,0.0,0 STARLINK-3574,1 51874U 22022Y   22239.91667824  .00045000  00000-0  28293-2 0  9999,2 51874  53.2175  39.1303 0001614  62.8402 298.1561 15.08816959 28399,6917.951,95.439,540.932,538.6990000000002,0.0
51874.0,STARLINK-3574,PAYLOAD,2022-08-28 14:00:01,15.08873842,0.0001553,53.2182,36.1364,68.7286,315.444,-0.0033152999999999,-0.00052714,0.0,0 STARLINK-3574,1 51874U 22022Y   22240.58334491 -.00052714  00000-0 -33153-2 0  9998,2 51874  53.2182  36.1364 0001553  68.7286 315.4440 15.08873842 28492,6917.776999999999,95.435,540.716,538.568,0.0
51874.0,STARLINK-3574,PAYLOAD,2022-08-28 22:00:00,15.08815782,0.0001534,53.2182,34.641,60.7825,335.0066,0.0017882999999999,0.00028269,0.0,0 STARLINK-3574,1 51874U 22022Y   22240.91667824  .00028269  00000-0  17883-2 0  9992,2 51874  53.2182  34.6410 0001534  60.7825 335.0066 15.08815782  1309,6917.954000000002,95.439,540.881,538.758,0.0
51874.0,STARLINK-3574,PAYLOAD,2022-08-29 06:00:02,15.08808682,0.0001394,53.2186,33.1429,69.2391,338.1981,0.0024324,0.00038603,0.0,0 STARLINK-3574,1 51874U 22022Y   22241.25002315  .00038603  00000-0  24324-2 0  9999,2 51874  53.2186  33.1429 0001394  69.2391 338.1981 15.08808682 28594,6917.976,95.44,540.805,538.877,0.0
51874.0,STARLINK-3574,PAYLOAD,2022-08-29 14:00:01,15.08851233,0.0001479,53.2188,31.6476,67.4668,351.4778,-0.0017804,-0.0002852,0.0,0 STARLINK-3574,1 51874U 22022Y   22241.58334491 -.00028520  00000-0 -17804-2 0  9992,2 51874  53.2188  31.6476 0001479  67.4668 351.4778 15.08851233  1304,6917.846,95.437,540.734,538.688,0.0
51874.0,STARLINK-3574,PAYLOAD,2022-08-29 22:00:00,15.08829924,0.0001511,53.2186,30.1521,59.7996,10.7456,0.002162,0.00034278,0.0,0 STARLINK-3574,1 51874U 22022Y   22241.91667824  .00034278  00000-0  21620-2 0  9994,2 51874  53.2186  30.1521 0001511  59.7996  10.7456 15.08829924  1302,6917.911,95.438,540.821,538.731,0.0
51874.0,STARLINK-3574,PAYLOAD,2022-08-30 14:00:01,15.08844327,0.0001551999999999,53.219,27.1589,69.0679,24.6677,-0.0021471999999999,-0.00034302,0.0,0 STARLINK-3574,1 51874U 22022Y   22242.58334491 -.00034302  00000-0 -21472-2 0  9994,2 51874  53.2190  27.1589 0001552  69.0679  24.6677 15.08844327 28799,6917.8669999999975,95.437,540.806,538.659,0.0
51874.0,STARLINK-3574,PAYLOAD,2022-08-30 22:00:00,15.08820656,0.0001574,53.2186,25.6633,62.5625,42.7583,0.0015363,0.00024234,0.0,0 STARLINK-3574,1 51874U 22022Y   22242.91667824  .00024234  00000-0  15363-2 0  9993,2 51874  53.2186  25.6633 0001574  62.5625  42.7583 15.08820656  1304,6917.94,95.439,540.893,538.716,0.0
